{
  "type": "FeatureCollection",
  "name": "canal_command_boundary",
  "crs": {
    "type": "name",
    "properties": {
      "name": "urn:ogc:def:crs:OGC:1.3:CRS84"
    }
  },
  "features": [
    {
      "type": "Feature",
      "properties": {
        "command_id": "BLOCK_KUTTANAD_NORTH",
        "name": "Kuttanad North Canal Command Area",
        "total_area_ha": 4500.0,
        "district": "Alappuzha",
        "state": "Kerala"
      },
      "geometry": {
        "type": "Polygon",
        "coordinates": [
          [
            [76.3800, 9.4700],
            [76.4800, 9.4700],
            [76.4800, 9.5700],
            [76.3800, 9.5700],
            [76.3800, 9.4700]
          ]
        ]
      }
    }
  ]
}
